O3B MPOWER F1           
1 54755U 22174A   23304.05270662 -.00000024  00000+0  00000+0 0  9997
2 54755   0.0520  19.1269 0005342 215.2680  97.6908  5.00118360 17327
